id;source_id;name;industry;email;phone;website;country;city;address;siret;size_label;created_at;updated_at;sigle;contact_nom;contact_tel;contact_email;admin_nom;admin_contact;admin_email
1bcc51d3-4185-42f0-8e0e-7d35ce2257f3;df6d2c82-f638-461a-a140-eedcb1eacd46;CAMEROON MARKETING COMMODITIES;ACHAT EXPORT CACAO CAFE;;3354126;;;KUMBA;MBONGE ROND;;;Sun Dec 07 2025 12:12:08 GMT-0500 (UTC−05:00);Sun Dec 07 2025 12:17:49 GMT-0500 (UTC−05:00);CAMACO;;;;;;
3f1cda7f-60cc-429a-aedb-686cd894fe99;df6d2c82-f638-461a-a140-eedcb1eacd46;CAMEROUN POSTAL SERVICES;ACTIVITE POSTALE;;22223613;;;YAOUNDE;IMMEUBLE AMACAM;;;Sun Dec 07 2025 12:12:08 GMT-0500 (UTC−05:00);Sun Dec 07 2025 12:17:49 GMT-0500 (UTC−05:00);CAMPOST;;;;;;
43d84dbb-937b-48dc-9510-5eb46c94ef4a;df6d2c82-f638-461a-a140-eedcb1eacd46;ASSURANCES  ET REASSURANCES AFRICAINES;ACTIVITES D'ASSURANCES (SAUF SECURITE SO;;33438197/33438232;;;DOUALA;BONAKOUAMOUANG;;;Sun Dec 07 2025 12:12:08 GMT-0500 (UTC−05:00);Sun Dec 07 2025 12:17:49 GMT-0500 (UTC−05:00);AREA ASSURANCES;;;;;;
3d7e9adb-e8d5-4d5d-bc19-ef04198641f8;df6d2c82-f638-461a-a140-eedcb1eacd46;SAHAM  ALL LIFE INSURANCE;ACTIVITES D'ASSURANCES (SAUF SECURITE SO;;3431144;;;DOUALA;FACE SOCAR;;;Sun Dec 07 2025 12:12:08 GMT-0500 (UTC−05:00);Sun Dec 07 2025 12:17:49 GMT-0500 (UTC−05:00);SAHAM ALL LIFE;;;;;;
b48b4e36-0666-4c7b-880c-35553333bb31;df6d2c82-f638-461a-a140-eedcb1eacd46;SUNU ASSURANCES VIE;ACTIVITES D'ASSURANCES (SAUF SECURITE SO;;3423159;;;DOUALA;RUE IMMEUBLE CHAMPAGNE PLAZZA;;;Sun Dec 07 2025 12:12:08 GMT-0500 (UTC−05:00);Sun Dec 07 2025 12:17:49 GMT-0500 (UTC−05:00);SUNU ASSURANCES VIE;;;;;;
6d2fda55-a49d-4c0d-bd97-cc0cfc3ee349;df6d2c82-f638-461a-a140-eedcb1eacd46;COMPAGNIE D'OPERATIONS PETROLIERE SCHLUMBERGER;ACTIVITES DE SERVICES AUX ENTREPRISES;;340 33 43;;;DOUALA;CIC Deido;;;Sun Dec 07 2025 12:12:08 GMT-0500 (UTC−05:00);Sun Dec 07 2025 12:17:49 GMT-0500 (UTC−05:00);COPS- SCHLUMBERGER;;;;;;
187d49bc-5650-4a04-9577-6abfd634c6bb;df6d2c82-f638-461a-a140-eedcb1eacd46;GROUPE 4 SOCURICOR;ACTIVITES DE SERVICES AUX ENTREPRISES;;677711169;;;DOUALA;;;;Sun Dec 07 2025 12:12:08 GMT-0500 (UTC−05:00);Sun Dec 07 2025 12:17:49 GMT-0500 (UTC−05:00);G4S CAMEROUN;;;;;;
fcd6956a-a3fb-47e2-8011-dbb5230049cd;df6d2c82-f638-461a-a140-eedcb1eacd46;EDC INVESTMENT CORPORATION;ACTIVITES FINANCIERES;;233431360;;;ND;IMM ACTIVA ETAGE 2;;;Sun Dec 07 2025 12:12:08 GMT-0500 (UTC−05:00);Sun Dec 07 2025 12:17:49 GMT-0500 (UTC−05:00);EDC;;;;;;
08d3221b-6988-42b8-83d4-ce99b04a63f1;df6d2c82-f638-461a-a140-eedcb1eacd46;CAMEROON DEVELOPMENT CORPORATION;AGRO INDUSTRIE;;33431883/33332251;;;DOUALA;BOTA;;;Sun Dec 07 2025 12:12:08 GMT-0500 (UTC−05:00);Sun Dec 07 2025 12:17:49 GMT-0500 (UTC−05:00);CDC;;;;;;
6915b82f-e11f-467c-bb29-8130ec3f17f3;df6d2c82-f638-461a-a140-eedcb1eacd46;HEVEA DU CAMEROUN;AGRO INDUSTRIE;;3461919;;;KRIBI;BOULEVARD DU GENERAL LECLERC;;;Sun Dec 07 2025 12:12:08 GMT-0500 (UTC−05:00);Sun Dec 07 2025 12:17:49 GMT-0500 (UTC−05:00);HEVECAM;;;;;;
5b33fd6b-5fe2-44dc-8770-ec63ec57caad;df6d2c82-f638-461a-a140-eedcb1eacd46;ACTIVA VIE;ASSURANCE;;3434503;;;DOUALA;PROVINCES REUNIES;;;Sun Dec 07 2025 12:12:08 GMT-0500 (UTC−05:00);Sun Dec 07 2025 12:17:49 GMT-0500 (UTC−05:00);ACTIVA VIE;;;;;;
86c186e4-ff02-4145-809c-11ef3cfd4a70;df6d2c82-f638-461a-a140-eedcb1eacd46;ALLIANZ CAMEROUN ASSURANCES;ASSURANCE;;3429203;;;DOUALA;RUE MANGA BELL;;;Sun Dec 07 2025 12:12:08 GMT-0500 (UTC−05:00);Sun Dec 07 2025 12:17:49 GMT-0500 (UTC−05:00);ALLIANZ ASSURANCES;;;;;;
dc2e87f9-41c0-46da-90d5-207b7e056323;df6d2c82-f638-461a-a140-eedcb1eacd46;AXA ASSURANCES;ASSURANCE;;3423159;;;DOUALA;BOULEVARD DE LA LIBERTE;;;Sun Dec 07 2025 12:12:08 GMT-0500 (UTC−05:00);Sun Dec 07 2025 12:17:49 GMT-0500 (UTC−05:00);AXA ASSURANCES;;;;;;
7ef00ee8-a191-4b48-bff6-2eb9766691e6;df6d2c82-f638-461a-a140-eedcb1eacd46;GARANTI MUTUEL DES CADRES;ASSURANCE;;3422133;;;DOUALA;DOUALA;;;Sun Dec 07 2025 12:12:08 GMT-0500 (UTC−05:00);Sun Dec 07 2025 12:17:49 GMT-0500 (UTC−05:00);GARANTI MUTUEL DES CADRES;;;;;;
52c361c6-51f8-4158-80ef-91e5fbfcc962;df6d2c82-f638-461a-a140-eedcb1eacd46;SOCIETE AFRICAINE D'ASSURANCE ET DE REASSURANCE VIE;ASSURANCE;;2233164;;;DOUALA;HYPODROMR RUE FOE;;;Sun Dec 07 2025 12:12:08 GMT-0500 (UTC−05:00);Sun Dec 07 2025 12:17:49 GMT-0500 (UTC−05:00);SAAR VIE;;;;;;
b83986dc-20f7-4741-99b1-6d7a04a3802b;df6d2c82-f638-461a-a140-eedcb1eacd46;BENEFICIAL LIFE INSURANCE;ASSURANCES;;3428408;;;DOUALA;BONAKOUAMOUANG;;;Sun Dec 07 2025 12:12:08 GMT-0500 (UTC−05:00);Sun Dec 07 2025 12:17:49 GMT-0500 (UTC−05:00);BENEFICIAL LIFE INSURANCE;;;;;;
986e1328-1e54-4c8a-90b2-008f57a63bf1;df6d2c82-f638-461a-a140-eedcb1eacd46;SOSIETE INTERAFRICAINE D'ASSURANCES;ASSURANCES;;33433113;;;DOUALA;ANCIEN IMMEUBLE SAGA;;;Sun Dec 07 2025 12:12:08 GMT-0500 (UTC−05:00);Sun Dec 07 2025 12:17:49 GMT-0500 (UTC−05:00);NSIA CAMEROUN;;;;;;
4928034c-9b4d-4954-bdec-ed21471088ab;df6d2c82-f638-461a-a140-eedcb1eacd46;AGROCHEMICAL;AUTRES COMMERCES DE GROS;;233423794/342 26 91;;;DOUALA;Avenue DEGAULE;;;Sun Dec 07 2025 12:12:08 GMT-0500 (UTC−05:00);Sun Dec 07 2025 12:17:49 GMT-0500 (UTC−05:00);AGROCHEM;;;;;;
062bbc7f-b1b8-4b8e-a573-756d92163238;df6d2c82-f638-461a-a140-eedcb1eacd46;SOCIETE CAMEROUNAISE DE GAZ LIQUEFIE ET DE PETROLE;AUTRES COMMERCES DE GROS;;3427249;;;DOUALA;PRINCE DES GALLES;;;Sun Dec 07 2025 12:12:08 GMT-0500 (UTC−05:00);Sun Dec 07 2025 12:17:49 GMT-0500 (UTC−05:00);CAMGAZ;;;;;;
62b626b5-217f-4fb6-b512-36468bcceacf;df6d2c82-f638-461a-a140-eedcb1eacd46;CAMEROON AIRLINES CORPORATION;AUTRES TRANSPORTS (AIR, EAU);;33422010/77117773;;;DOUALA;FACE LEGION GENDAMERIE;;;Sun Dec 07 2025 12:12:08 GMT-0500 (UTC−05:00);Sun Dec 07 2025 12:17:49 GMT-0500 (UTC−05:00);CAMAIRCO;;;;;;
093f76e1-4487-479b-b21d-820eccb3dbab;df6d2c82-f638-461a-a140-eedcb1eacd46;UNITED BANK FOR AFRICA;BANQUE;;33433364;;;DOUALA;BOULEVARD DE LA LIBERTE;;;Sun Dec 07 2025 12:12:08 GMT-0500 (UTC−05:00);Sun Dec 07 2025 12:17:49 GMT-0500 (UTC−05:00);UBA;;;;;;
66295bad-77e4-4290-80f7-6f1a8bd3a7c3;df6d2c82-f638-461a-a140-eedcb1eacd46;DJEMO BTP SARL;BATIMENT ET TRAVAUX PUBLICS;;22018611/696871875;;;YAOUNDE;Mont�e Anne rouge;;;Sun Dec 07 2025 12:12:08 GMT-0500 (UTC−05:00);Sun Dec 07 2025 12:17:49 GMT-0500 (UTC−05:00);DJEMO BTP;;;;;;
3be380f6-739f-4cc4-9065-59b48bb4033d;df6d2c82-f638-461a-a140-eedcb1eacd46;GEYSER SA SUCCURSALE;BATIMENT ET TRAVAUX PUBLICS;;;;;ND;GAROUA;;;Sun Dec 07 2025 12:12:08 GMT-0500 (UTC−05:00);Sun Dec 07 2025 12:17:49 GMT-0500 (UTC−05:00);GEYSER;;;;;;
a43d4fcf-3914-45b3-8fe1-ecb7ed6b4e1c;df6d2c82-f638-461a-a140-eedcb1eacd46;MNO VERVAT B.V CAMEROUN;BATIMENT ET TRAVAUX PUBLICS;;22315275;;;YAOUNDE;MARCHE /BUNS;;;Sun Dec 07 2025 12:12:08 GMT-0500 (UTC−05:00);Sun Dec 07 2025 12:17:49 GMT-0500 (UTC−05:00);MNO VERVAT;;;;;;
e5b0ac90-18a9-46e8-b923-57446cf12d25;df6d2c82-f638-461a-a140-eedcb1eacd46;PIZZAROTI BRANCH  CAMEROON;BATIMENT ET TRAVAUX PUBLICS;;699967996/690444442;;;ND;FACE MATAMFEN;;;Sun Dec 07 2025 12:12:08 GMT-0500 (UTC−05:00);Sun Dec 07 2025 12:17:49 GMT-0500 (UTC−05:00);PIZZAROTI BRANCH CAMEROON;;;;;;
d77bd569-7d10-459e-ae0c-cdf14542a62f;df6d2c82-f638-461a-a140-eedcb1eacd46;ARAB CONTRACTORS CAMEROUN;BATIMENTS ET TP;;96376159/96496664;;;YAOUNDE;BASTOS;;;Sun Dec 07 2025 12:12:08 GMT-0500 (UTC−05:00);Sun Dec 07 2025 12:17:49 GMT-0500 (UTC−05:00);ARAB CONTRACTORS;;;;;;
aed1961f-da03-4af9-86d5-72c3ac69dd8d;df6d2c82-f638-461a-a140-eedcb1eacd46;CHINA ROAD AND BRIDGE CORPORATION;BATIMENTS ET TRAVAUX PUBLICS;;33376318;;;DOUALA;JAPOMA;;;Sun Dec 07 2025 12:12:08 GMT-0500 (UTC−05:00);Sun Dec 07 2025 12:17:49 GMT-0500 (UTC−05:00);CRBC CO;;;;;;
d28e5324-2937-452b-b217-a1314ac0f3da;df6d2c82-f638-461a-a140-eedcb1eacd46;JIANTSU TRANSPORTATION ENG GROUP CAM;BATIMENTS ET TRAVAUX PUBLICS;;70087715;;;DOUALA;Apr�s Total Mbanga Pongo;;;Sun Dec 07 2025 12:12:08 GMT-0500 (UTC−05:00);Sun Dec 07 2025 12:17:49 GMT-0500 (UTC−05:00);JTEGC;;;;;;
5cfaf584-08cd-4d71-bd37-5fce0640e59d;df6d2c82-f638-461a-a140-eedcb1eacd46;PARLITE FOODS SARL;BISCUITERIE;;77547553;;;DOUALA;NGODI BAKOKO;;;Sun Dec 07 2025 12:12:08 GMT-0500 (UTC−05:00);Sun Dec 07 2025 12:17:49 GMT-0500 (UTC−05:00);PARLITE FOODS;;;;;;
98654481-7b99-4b19-a9d6-2a3c092f5a27;df6d2c82-f638-461a-a140-eedcb1eacd46;BOULANGERIE ACROPOLE;BOULAGERIE-PATISSERIE-ALIMENTATION;;22230693;;;YAOUNDE;ANCIENNE GARE ROUTIERE;;;Sun Dec 07 2025 12:12:08 GMT-0500 (UTC−05:00);Sun Dec 07 2025 12:17:49 GMT-0500 (UTC−05:00);ACROPOLE;;;;;;
838ff12c-58e3-4071-a462-0f4319b865fc;df6d2c82-f638-461a-a140-eedcb1eacd46;GUINNESS CAMEROUN SA;BRASSEUR;;3401319;;;DOUALA;DOUALA;;;Sun Dec 07 2025 12:12:08 GMT-0500 (UTC−05:00);Sun Dec 07 2025 12:17:49 GMT-0500 (UTC−05:00);GCSA;;;;;;
c72137e7-b6f8-42b2-a8ea-c6bbefc39162;df6d2c82-f638-461a-a140-eedcb1eacd46;SOCIETE ANONYME DES BRASSERIES DU CAMEROUN;BRASSEUR;;3429133;;;DOUALA;RUE PRINCE BELL;;;Sun Dec 07 2025 12:12:08 GMT-0500 (UTC−05:00);Sun Dec 07 2025 12:17:49 GMT-0500 (UTC−05:00);SABC;;;;;;
9db5b21a-d567-4d7d-a6cc-1f3305288c39;df6d2c82-f638-461a-a140-eedcb1eacd46;BATI SERVICE;BTP;;3421169;;;DOUALA;Avenue DEGAULE;;;Sun Dec 07 2025 12:12:08 GMT-0500 (UTC−05:00);Sun Dec 07 2025 12:17:49 GMT-0500 (UTC−05:00);BATI SERVICE;;;;;;
1dc04d79-426e-4552-a75f-913b2b801fc3;df6d2c82-f638-461a-a140-eedcb1eacd46;BUNS SARL;BTP;;2306881;;;YAOUNDE;MARCHE;;;Sun Dec 07 2025 12:12:08 GMT-0500 (UTC−05:00);Sun Dec 07 2025 12:17:49 GMT-0500 (UTC−05:00);BUNS;;;;;;
2b344d3b-fd97-45b2-8eff-33a8254f4686;df6d2c82-f638-461a-a140-eedcb1eacd46;CHINA INTER WATER & ELECTRIC CORPORATION;BTP;;76352006;;;DOUALA;Brasserie;;;Sun Dec 07 2025 12:12:08 GMT-0500 (UTC−05:00);Sun Dec 07 2025 12:17:49 GMT-0500 (UTC−05:00);CWE;;;;;;
3a6852ac-1317-4fe1-bd2a-a2258cc21051;df6d2c82-f638-461a-a140-eedcb1eacd46;SOGEA SATOM CAMEROUN;BTP;;220 18 89/220 27 53;;;YAOUNDE;vers coll�ge st MICHEL;;;Sun Dec 07 2025 12:12:08 GMT-0500 (UTC−05:00);Sun Dec 07 2025 12:17:49 GMT-0500 (UTC−05:00);SOGEA SATOM CAMEROUN;;;;;;
696b1d42-7779-46cd-be38-22ec317434b4;df6d2c82-f638-461a-a140-eedcb1eacd46;ALLIANCES CONSTRUCTION CAMEROUN S.A;BTP ET MAINTENANCE;;677828494;;;ND;YAOUNDE;;;Sun Dec 07 2025 12:12:08 GMT-0500 (UTC−05:00);Sun Dec 07 2025 12:17:49 GMT-0500 (UTC−05:00);ACC S.A;;;;;;
17cc1d8d-adf4-452f-bcf3-cf25c47d8be5;df6d2c82-f638-461a-a140-eedcb1eacd46;ANHUI SHUIAN CONSTRUCTION GROUP;BTP ET MAINTENANCE;;653958606;;;ND;CANAL MFOUNDI;;;Sun Dec 07 2025 12:12:08 GMT-0500 (UTC−05:00);Sun Dec 07 2025 12:17:49 GMT-0500 (UTC−05:00);ANHUI SHUIAN CONSTRUCTION;;;;;;
aec83abc-411e-40b8-9e10-3a739dc5397e;df6d2c82-f638-461a-a140-eedcb1eacd46;GROUPE DPE INTER;BTP ET MAINTENANCE;;22200181;;;YAOUNDE;RUE CEPER;;;Sun Dec 07 2025 12:12:08 GMT-0500 (UTC−05:00);Sun Dec 07 2025 12:17:49 GMT-0500 (UTC−05:00);GROUPE DPE INTER;;;;;;
d4e50441-f949-4d3f-aadc-e10342a711ed;df6d2c82-f638-461a-a140-eedcb1eacd46;KALFRELEC;BTP ET MAINTENANCE;;33430506/699918905/677148275;;;DOUALA;AVENUE JAMOT;;;Sun Dec 07 2025 12:12:08 GMT-0500 (UTC−05:00);Sun Dec 07 2025 12:17:49 GMT-0500 (UTC−05:00);KALFRELEC;;;;;;
c6ab00af-5178-4f35-a82b-fff83147ccb2;df6d2c82-f638-461a-a140-eedcb1eacd46;SEP RAZEL BEC/RAZEL CMR/FARMEX;BTP ET MAINTENANCE;;222220306;;;YAOUNDE;IM STAMATIADES;;;Sun Dec 07 2025 12:12:08 GMT-0500 (UTC−05:00);Sun Dec 07 2025 12:17:49 GMT-0500 (UTC−05:00);SEP RAZEL BEC/RAZEL CMR/F;;;;;;
e2e6065a-c539-4da9-ac73-e5a76e667a60;df6d2c82-f638-461a-a140-eedcb1eacd46;LOUIS BERGER;BUREAU D'ETUDE ET DE CONTROLE;;699964010;;;YAOUNDE;BASTOS;;;Sun Dec 07 2025 12:12:08 GMT-0500 (UTC−05:00);Sun Dec 07 2025 12:17:49 GMT-0500 (UTC−05:00);LOUIS BERGER;;;;;;
9883de32-c082-42f5-99c0-83f248b2166d;df6d2c82-f638-461a-a140-eedcb1eacd46;PRICE WATER HOUSE COOPERS SARL;CABINET D'ETUDE ET D'AUDIT;;3432443;;;DOUALA;Rue Christian Tobie Kouoh;;;Sun Dec 07 2025 12:12:08 GMT-0500 (UTC−05:00);Sun Dec 07 2025 12:17:49 GMT-0500 (UTC−05:00);PRICE WATER HOUSE COOPERS;;;;;;
c9c82aa8-0a49-4995-b087-28c566e592bf;df6d2c82-f638-461a-a140-eedcb1eacd46;CHOCOLATERIE CONFISERIE CAMEROUNAISE;CHOCOLATERIE;;3376680;;;DOUALA;MONTEE COLLEGE CHEVREUIL-ST MICHEL;;;Sun Dec 07 2025 12:12:08 GMT-0500 (UTC−05:00);Sun Dec 07 2025 12:17:49 GMT-0500 (UTC−05:00);CHOCOCAM;;;;;;
da1532fd-1bbd-49c7-b5fa-6609dd7e64aa;df6d2c82-f638-461a-a140-eedcb1eacd46;B2B CAMEROUN SARL;COMMERCE;;699793563;;;YAOUNDE;Vers Julie Voyage;;;Sun Dec 07 2025 12:12:08 GMT-0500 (UTC−05:00);Sun Dec 07 2025 12:17:49 GMT-0500 (UTC−05:00);B2B CAMEROUN SARL;;;;;;
c5731592-725d-4819-8d64-0466e68461e0;df6d2c82-f638-461a-a140-eedcb1eacd46;FAKOCO SARL;COMMERCE;;360 64 82;;;DOUALA;Zone Portuaire;;;Sun Dec 07 2025 12:12:08 GMT-0500 (UTC−05:00);Sun Dec 07 2025 12:17:49 GMT-0500 (UTC−05:00);FAKOCO SARL;;;;;;
1bef3b0a-96e7-401e-b971-b92d948b153c;df6d2c82-f638-461a-a140-eedcb1eacd46;SOCIETE COMMERCIALE SUPERS BAZARS;COMMERCE;;222235259;;;YAOUNDE;Pr�s de NIKI;;;Sun Dec 07 2025 12:12:08 GMT-0500 (UTC−05:00);Sun Dec 07 2025 12:17:49 GMT-0500 (UTC−05:00);SOCSUBA;;;;;;
2edbeea6-a63d-4302-840d-ed902efd4261;df6d2c82-f638-461a-a140-eedcb1eacd46;TRACTAFRIC EQUIPMENT CAMEROUN;COMMERCE;;33379083/33374525;;;DOUALA;BLVD LIBERTE;;;Sun Dec 07 2025 12:12:08 GMT-0500 (UTC−05:00);Sun Dec 07 2025 12:17:49 GMT-0500 (UTC−05:00);TRACTAFRIC EQUIPMENT;;;;;;
c976ad91-0f83-4ae3-9b90-f54d9ece2552;df6d2c82-f638-461a-a140-eedcb1eacd46;UNION TRADING INTERNATIONAL;COMMERCE;;3470482;;;DOUALA;YASSA;;;Sun Dec 07 2025 12:12:08 GMT-0500 (UTC−05:00);Sun Dec 07 2025 12:17:49 GMT-0500 (UTC−05:00);UTI;;;;;;
30506aee-5440-423c-9422-59d74b83e374;df6d2c82-f638-461a-a140-eedcb1eacd46;YAYA S.A;COMMERCE DE DETAIL (SAUF AUTOMOBILES ET;;699933386;;;MAROUA;MARCHE CENTRAL;;;Sun Dec 07 2025 12:12:08 GMT-0500 (UTC−05:00);Sun Dec 07 2025 12:17:49 GMT-0500 (UTC−05:00);YAYA;;;;;;
56c919f9-ca4f-441e-a842-59cbd802f648;df6d2c82-f638-461a-a140-eedcb1eacd46;INTERFACE;COMMERCE DE GROS ET DE DETAIL;;33425716;;;DOUALA;MOBIL;;;Sun Dec 07 2025 12:12:08 GMT-0500 (UTC−05:00);Sun Dec 07 2025 12:17:49 GMT-0500 (UTC−05:00);INTERFACE;;;;;;
2b67a640-baea-4e19-8ef2-8b6b379cfb58;df6d2c82-f638-461a-a140-eedcb1eacd46;LA CAMEROUNAISE D'IMPORTATION;COMMERCE DE GROS ET DE DETAIL;;33439154;;;DOUALA;RUE JOFFRE AKWA;;;Sun Dec 07 2025 12:12:08 GMT-0500 (UTC−05:00);Sun Dec 07 2025 12:17:49 GMT-0500 (UTC−05:00);LCI ORCA;;;;;;
73a25ee4-05b2-4c39-9b98-ddc385cb09ee;df6d2c82-f638-461a-a140-eedcb1eacd46;NEALIKO;COMMERCE DE GROS ET DE DETAIL;;33411343;;;TIKO;TIKO;;;Sun Dec 07 2025 12:12:08 GMT-0500 (UTC−05:00);Sun Dec 07 2025 12:17:49 GMT-0500 (UTC−05:00);NEALIKO;;;;;;
cf956597-1a1e-4dc7-9bd7-edcde0c50943;df6d2c82-f638-461a-a140-eedcb1eacd46;SOCIETE BELGE-CAMEROUN;COMMERCE DE GROS ET DE DETAIL;;33393719;;;DOUALA;BONABERI;;;Sun Dec 07 2025 12:12:08 GMT-0500 (UTC−05:00);Sun Dec 07 2025 12:17:49 GMT-0500 (UTC−05:00);BELGOCAM;;;;;;
91014511-0ffa-4a7c-b3d2-c9c9d12e7890;df6d2c82-f638-461a-a140-eedcb1eacd46;SOCIETE DE COMMERCE DES PRODUITS ALIMENTAIRES;COMMERCE DE GROS ET DE DETAIL;;33445136;;;BAFOUSSAM;SOCOPRAL;;;Sun Dec 07 2025 12:12:08 GMT-0500 (UTC−05:00);Sun Dec 07 2025 12:17:49 GMT-0500 (UTC−05:00);SOCOPRAL;;;;;;
9200b7b7-9d3f-463a-a703-9540d5b73818;df6d2c82-f638-461a-a140-eedcb1eacd46;SOCIETE HENRI ET FRERES;COMMERCE DE GROS ET DE DETAIL;;99637177;;;YAOUNDE;MARCHE CENTRAL, cot� royal hotel;;;Sun Dec 07 2025 12:12:08 GMT-0500 (UTC−05:00);Sun Dec 07 2025 12:17:49 GMT-0500 (UTC−05:00);HENRI ET FRERES;;;;;;
6434a450-a5a0-4229-9b27-2616f34c5188;df6d2c82-f638-461a-a140-eedcb1eacd46;SOCIETE MIRA S.A;COMMERCE DE GROS ET DE DETAIL;;677661111;;;DOUALA;Base navale;;;Sun Dec 07 2025 12:12:08 GMT-0500 (UTC−05:00);Sun Dec 07 2025 12:17:49 GMT-0500 (UTC−05:00);MIRA;;;;;;
aac4a908-fef1-4f60-ad9f-e652bb266838;df6d2c82-f638-461a-a140-eedcb1eacd46;STE DE NEGOCE ET DE COMMERCE;COMMERCE DE GROS ET DE DETAIL;;;;;ND;MARCHE;;;Sun Dec 07 2025 12:12:08 GMT-0500 (UTC−05:00);Sun Dec 07 2025 12:17:49 GMT-0500 (UTC−05:00);SONECOMX;;;;;;
909d503f-d823-4f35-93bc-b44c79eba3ce;df6d2c82-f638-461a-a140-eedcb1eacd46;AFCOTT CAMEROON SARL;COMMERCE D'ENGRAIS;;22272727;;;GAROUA;EN FACE MARCHE POISSON;;;Sun Dec 07 2025 12:12:08 GMT-0500 (UTC−05:00);Sun Dec 07 2025 12:17:49 GMT-0500 (UTC−05:00);AFCOTT CAM SARL;;;;;;
67d40ec3-cf70-42ca-8227-b06af467681e;df6d2c82-f638-461a-a140-eedcb1eacd46;AGRIEX CAMEROON;COMMERCE ET DISTRIBUTION;;98003135;;;DOUALA;BONAPRISO;;;Sun Dec 07 2025 12:12:08 GMT-0500 (UTC−05:00);Sun Dec 07 2025 12:17:49 GMT-0500 (UTC−05:00);AGRIEX CAMEROON;;;;;;
0997a9ef-7305-4795-8551-e748ced56bc9;df6d2c82-f638-461a-a140-eedcb1eacd46;SOCIETE NOUVELLE DE DISTRIBUTION;COMMERCE ET DISTRIBUTION;;233370858;;;DOUALA;ANCIEN CINEMA;;;Sun Dec 07 2025 12:12:08 GMT-0500 (UTC−05:00);Sun Dec 07 2025 12:17:49 GMT-0500 (UTC−05:00);SONODI  SARL;;;;;;
03edc147-05db-4809-849c-b3a4ff583224;df6d2c82-f638-461a-a140-eedcb1eacd46;SOCIETE L'ATRIUM;COMMERCE ET IMPORTATION DES MARCHANDISES;;33034440;;;ND;VALLEE BONANJO;;;Sun Dec 07 2025 12:12:08 GMT-0500 (UTC−05:00);Sun Dec 07 2025 12:17:49 GMT-0500 (UTC−05:00);L'ATRIUM;;;;;;
1e8d4bfb-94c9-4533-a3da-2f96ec3b854d;df6d2c82-f638-461a-a140-eedcb1eacd46;SOCIETE SONAM CAMEROUN;COMMERCE ET IMPORTATION DES MARCHANDISES;;233413150;;;DOUALA;ROND POINT;;;Sun Dec 07 2025 12:12:08 GMT-0500 (UTC−05:00);Sun Dec 07 2025 12:17:49 GMT-0500 (UTC−05:00);SONAM;;;;;;
12b9d258-1d2e-43a2-bad9-016e77e197c0;df6d2c82-f638-461a-a140-eedcb1eacd46;ARNO;COMMERCE GENERAL;;3420428;;;DOUALA;DOUALA;;;Sun Dec 07 2025 12:12:08 GMT-0500 (UTC−05:00);Sun Dec 07 2025 12:17:49 GMT-0500 (UTC−05:00);ARNO;;;;;;
5a238f92-a1b5-4f09-b66b-56b346c7d99b;df6d2c82-f638-461a-a140-eedcb1eacd46;FOKOU FOBERD;COMMERCE GENERAL;;2231117;;;YAOUNDE;ELIG-EFFA;;;Sun Dec 07 2025 12:12:08 GMT-0500 (UTC−05:00);Sun Dec 07 2025 12:17:49 GMT-0500 (UTC−05:00);FOKOU FOBERD;;;;;;
3967a5bf-42a5-4671-b912-b271a5173c59;df6d2c82-f638-461a-a140-eedcb1eacd46;JACKEN SARL;COMMERCE GENERAL;;33422784;;;DOUALA;MARCHE MBOPI;;;Sun Dec 07 2025 12:12:08 GMT-0500 (UTC−05:00);Sun Dec 07 2025 12:17:49 GMT-0500 (UTC−05:00);JACKEN;;;;;;
03d39435-2440-4a89-8858-445e14a3800a;df6d2c82-f638-461a-a140-eedcb1eacd46;JACO SA;COMMERCE GENERAL;;2231624;;;YAOUNDE;Cot� ancien FONADER;;;Sun Dec 07 2025 12:12:08 GMT-0500 (UTC−05:00);Sun Dec 07 2025 12:17:49 GMT-0500 (UTC−05:00);JACO SA;;;;;;
c13fedfa-16fe-4bc4-ba88-9f5995e79135;df6d2c82-f638-461a-a140-eedcb1eacd46;RIMEX SARL;COMMERCE GENERAL;;33392969;;;DOUALA;Boulevard LECLERC;;;Sun Dec 07 2025 12:12:08 GMT-0500 (UTC−05:00);Sun Dec 07 2025 12:17:49 GMT-0500 (UTC−05:00);RIMEX SARL;;;;;;
ab8dfd98-b1dc-4470-941f-c34cb60183e3;df6d2c82-f638-461a-a140-eedcb1eacd46;SADOU HOLDING;COMMERCE GENERAL;;99177259/222188898;;;MAROUA;MARCHE CENTRAL;;;Sun Dec 07 2025 12:12:08 GMT-0500 (UTC−05:00);Sun Dec 07 2025 12:17:49 GMT-0500 (UTC−05:00);SADOU HOLDING;;;;;;
ba872b1e-00ba-4ded-b6ed-2a5e08ebb71f;df6d2c82-f638-461a-a140-eedcb1eacd46;SOCIETE DE VENTE DES PRODUITS ALIMENTAIRES DU CAMEROUN;COMMERCE GENERAL;;33425345;;;DOUALA;MBOPPI;;;Sun Dec 07 2025 12:12:08 GMT-0500 (UTC−05:00);Sun Dec 07 2025 12:17:49 GMT-0500 (UTC−05:00);SOVEPAC;;;;;;
7ac78973-b659-449e-b042-392be6158721;df6d2c82-f638-461a-a140-eedcb1eacd46;SOCIETE SANLI AFRIQUE DEVELOPPEMENT;COMMERCE GENERAL;;33436686/99849596;;;DOUALA;RADIO EQUINOXE;;;Sun Dec 07 2025 12:12:08 GMT-0500 (UTC−05:00);Sun Dec 07 2025 12:17:49 GMT-0500 (UTC−05:00);SANLI SARL;;;;;;
cf0f33bf-8132-4c56-8bf0-6ec1eba00a67;df6d2c82-f638-461a-a140-eedcb1eacd46;VERO DISTRIBUTION;COMMERCE GENERAL;;22002024;;;YAOUNDE;FACE FOKOU MOKOLO;;;Sun Dec 07 2025 12:12:08 GMT-0500 (UTC−05:00);Sun Dec 07 2025 12:17:49 GMT-0500 (UTC−05:00);VERODIS;;;;;;
7a343f70-b596-41b5-b232-5a997a158506;df6d2c82-f638-461a-a140-eedcb1eacd46;SODIPAC;COMMERCE PRODUITS ALIMENTAIRES;;33426741;;;DOUALA;;;;Sun Dec 07 2025 12:12:08 GMT-0500 (UTC−05:00);Sun Dec 07 2025 12:17:49 GMT-0500 (UTC−05:00);SODIPAC;;;;;;
33675470-a294-4d04-af3c-a44471d9a8f9;df6d2c82-f638-461a-a140-eedcb1eacd46;CAMEROON MOTORS INDUSTRIES;COMMERCE VEHICULES, D'ACCESSOIRES ET DE;;3397655;;;DOUALA;ZONE INDUSTRIELLE BONABERIE;;;Sun Dec 07 2025 12:12:08 GMT-0500 (UTC−05:00);Sun Dec 07 2025 12:17:49 GMT-0500 (UTC−05:00);CAMI;;;;;;
bfc62fb9-26ed-4f70-81c7-6b025ce706c9;df6d2c82-f638-461a-a140-eedcb1eacd46;SOCIETE CFAO EQUIPMENT;COMMERCE VEHICULES, D'ACCESSOIRES ET DE;;33393030;;;DOUALA;Zone industrielle;;;Sun Dec 07 2025 12:12:08 GMT-0500 (UTC−05:00);Sun Dec 07 2025 12:17:49 GMT-0500 (UTC−05:00);CFAO EQUIPMENT;;;;;;
086b134b-a252-44f3-a6c4-18afb3323fa4;df6d2c82-f638-461a-a140-eedcb1eacd46;DAVUM CAMEROUN;CONCESSIONNAIRE VEHICULE;;233 42 50 27;;;DOUALA;RUE DU DOCTEUR JAMOT;;;Sun Dec 07 2025 12:12:08 GMT-0500 (UTC−05:00);Sun Dec 07 2025 12:17:49 GMT-0500 (UTC−05:00);DACAM;;;;;;
afb01c21-2009-41cd-a42c-4a87e602c0bb;df6d2c82-f638-461a-a140-eedcb1eacd46;SOCIETE LOXEA;CONCESSIONNAIRE VEHICULE;;33 39 30 30;;;DOUALA;avant CAMI TOYOTA;;;Sun Dec 07 2025 12:12:08 GMT-0500 (UTC−05:00);Sun Dec 07 2025 12:17:49 GMT-0500 (UTC−05:00);LOXEA;;;;;;
454e8075-3aba-499e-b1ee-18ab724ff0ff;df6d2c82-f638-461a-a140-eedcb1eacd46;MARSK LINE AGENCY CAMEROON SA;CONSIGNATION MARITIME;;233500500;;;ND;ZONE UDEAC;;;Sun Dec 07 2025 12:12:08 GMT-0500 (UTC−05:00);Sun Dec 07 2025 12:17:49 GMT-0500 (UTC−05:00);MAERSK LINE AGENCY;;;;;;
1dbf28e5-25f9-4dd5-94d0-6a2c2ebad0ea;df6d2c82-f638-461a-a140-eedcb1eacd46;CONSTRUCTION CARROSSERIE MENUISER METAL;CONSTRUCTION METALLIQUE;;675894816;;;DOUALA;CH�TEAU D'EAU, DERRIERE L'EGLISE EEC;;;Sun Dec 07 2025 12:12:08 GMT-0500 (UTC−05:00);Sun Dec 07 2025 12:17:49 GMT-0500 (UTC−05:00);CCMM;;;;;;
abff5508-4433-42eb-956b-91937f814b99;df6d2c82-f638-461a-a140-eedcb1eacd46;CONSTRUCTION METALLIQUE;CONSTRUCTION METALLIQUE;;3397608/33391856/33391858;;;DOUALA;MAGZI;;;Sun Dec 07 2025 12:12:08 GMT-0500 (UTC−05:00);Sun Dec 07 2025 12:17:49 GMT-0500 (UTC−05:00);COMETAL SA;;;;;;
0cc93569-26ad-4c72-9a3d-455b09f21ffc;df6d2c82-f638-461a-a140-eedcb1eacd46;GRAS SAVOYE;COURTAGE ASSURANCE;;3432122;;;DOUALA;402 RUE AVENUE DEGAULLE;;;Sun Dec 07 2025 12:12:08 GMT-0500 (UTC−05:00);Sun Dec 07 2025 12:17:49 GMT-0500 (UTC−05:00);GRAS SAVOYE;;;;;;
5bc9e998-88e3-4939-94b5-031dce2f1806;df6d2c82-f638-461a-a140-eedcb1eacd46;PLANTATIONS DU HAUT PENDJA;CULTURE DE BANANE;;3424248;;;PENDJA;NJOMBE;;;Sun Dec 07 2025 12:12:08 GMT-0500 (UTC−05:00);Sun Dec 07 2025 12:17:49 GMT-0500 (UTC−05:00);PHP;;;;;;
1d70d9d6-44d2-4cf9-8013-c8a2ea06b9ff;df6d2c82-f638-461a-a140-eedcb1eacd46;DEE LITE;DISTRIBUTION;;33423072;;;DOUALA;Avenue Ahmadou Ahidjo;;;Sun Dec 07 2025 12:12:08 GMT-0500 (UTC−05:00);Sun Dec 07 2025 12:17:49 GMT-0500 (UTC−05:00);DEE LITE;;;;;;
5df1a320-53cd-4722-954f-895ccb89cc94;df6d2c82-f638-461a-a140-eedcb1eacd46;MAHIMA;DISTRIBUTION;;33434487/677500648;;;DOUALA;Avenu Ahmadou Ahidjo;;;Sun Dec 07 2025 12:12:08 GMT-0500 (UTC−05:00);Sun Dec 07 2025 12:17:49 GMT-0500 (UTC−05:00);MAHIMA;;;;;;
ef31f67a-8383-4dd2-8bb7-c5a7411b2899;df6d2c82-f638-461a-a140-eedcb1eacd46;VELIA SARL;ACHAT ET VENTE CACAO;;33161843/99135470;;;DOUALA;BASE ELF;;;Sun Dec 07 2025 12:12:08 GMT-0500 (UTC−05:00);Sun Dec 07 2025 12:17:49 GMT-0500 (UTC−05:00);VELIA SARL;;;;;;
2f5479c6-2322-4f42-93a9-7aeb9e041dbb;df6d2c82-f638-461a-a140-eedcb1eacd46;AGROPRODUCE MANAGEMENT SERVICES LTD;ACHAT EXPORT CACAO CAFE;;677563558;;;TIKO;MUTENGENE;;;Sun Dec 07 2025 12:12:08 GMT-0500 (UTC−05:00);Sun Dec 07 2025 12:17:49 GMT-0500 (UTC−05:00);AGROPRODUCE MANAGEMENT;;;;;;
2d32d2e1-6a92-40b0-93b5-d29fae56f418;df6d2c82-f638-461a-a140-eedcb1eacd46;SOTCOCOG SUCCURSALE;BTP ET MAINTENANCE;;0;;;ND;GAROUA;;;Sun Dec 07 2025 12:12:08 GMT-0500 (UTC−05:00);Sun Dec 07 2025 12:17:49 GMT-0500 (UTC−05:00);SOTCOCOG;;;;;;
5e5f4580-1a3a-4987-b809-30e2b8b28003;df6d2c82-f638-461a-a140-eedcb1eacd46;TOP INTERNATIONAL ENGINE CORP CAMEROUN;BTP ET MAINTENANCE;;677793731/222216843;;;ND;ECOLE LES CHERUBINS;;;Sun Dec 07 2025 12:12:08 GMT-0500 (UTC−05:00);Sun Dec 07 2025 12:17:49 GMT-0500 (UTC−05:00);TOP INTERNATIONAL ENGINE;;;;;;
7cacceb3-c659-499c-b099-d6b6536b41fd;df6d2c82-f638-461a-a140-eedcb1eacd46;SOCIETE D'IMPORT & COMMERCE;DISTRIBUTION;;3429059;;;DOUALA;March�;;;Sun Dec 07 2025 12:12:08 GMT-0500 (UTC−05:00);Sun Dec 07 2025 12:17:49 GMT-0500 (UTC−05:00);SIMCO;;;;;;
c961dee9-5c4a-45b3-bbb1-ea0e0467f4aa;df6d2c82-f638-461a-a140-eedcb1eacd46;SOCIETE ALIMENTAIRE DU CAMEROUN;DISTRIBUTION DES PRODUITS ALIMENTAIRES;;222205961;;;YAOUNDE;SIXIEME;;;Sun Dec 07 2025 12:12:08 GMT-0500 (UTC−05:00);Sun Dec 07 2025 12:17:49 GMT-0500 (UTC−05:00);SOACAM SARL;;;;;;
91eb9390-6bb6-442d-afff-68699bf0129e;df6d2c82-f638-461a-a140-eedcb1eacd46;GOSHEN OIL SARL;DISTRIBUTION DES PRODUITS PETROLIERS;;699021917;;;ND;YAOUNDE;;;Sun Dec 07 2025 12:12:08 GMT-0500 (UTC−05:00);Sun Dec 07 2025 12:17:49 GMT-0500 (UTC−05:00);GOSHEN OIL;;;;;;
95721f93-3fa5-4ee4-886a-bfc6e5469141;df6d2c82-f638-461a-a140-eedcb1eacd46;CAMEROUNAISE DES EAUX;DISTRIBUTION EAU POTABLE;;33 43 99 82;;;DOUALA;BOULANGERIE SAKER;;;Sun Dec 07 2025 12:12:08 GMT-0500 (UTC−05:00);Sun Dec 07 2025 12:17:49 GMT-0500 (UTC−05:00);CDE;;;;;;
62a881c9-5d40-4afc-978e-ef46c2cb9da2;df6d2c82-f638-461a-a140-eedcb1eacd46;BLESSING PETROLEUM;DISTRIBUTION PETROLIERE;;33425071;;;DOUALA;EGLISE BAPTISTEFACE AU TEMPLE;;;Sun Dec 07 2025 12:12:08 GMT-0500 (UTC−05:00);Sun Dec 07 2025 12:17:49 GMT-0500 (UTC−05:00);BLESSING PETROLEUM;;;;;;
5df493ab-1c9b-422a-8559-981f148cf233;df6d2c82-f638-461a-a140-eedcb1eacd46;DELTA PETROLEUM CAMEROUN S.A;DISTRIBUTION PETROLIERE;;33413105/33413409;;;DOUALA;ENTREE SCDP;;;Sun Dec 07 2025 12:12:08 GMT-0500 (UTC−05:00);Sun Dec 07 2025 12:17:49 GMT-0500 (UTC−05:00);DELTA PETROLEUM;;;;;;
bc194836-8862-4c64-ba8e-b9f30a6194be;df6d2c82-f638-461a-a140-eedcb1eacd46;ACTIVE ZONE OF AFRICA;DISTRIBUTION PETROLIERE ET GAZIERE;;33429755;;;DOUALA;CARREFOUR MUTZIG;;;Sun Dec 07 2025 12:12:08 GMT-0500 (UTC−05:00);Sun Dec 07 2025 12:17:49 GMT-0500 (UTC−05:00);AZA;;;;;;
e3e3180a-e398-46bb-a515-7fe3340eecaa;df6d2c82-f638-461a-a140-eedcb1eacd46;NEPTUNE OIL;DISTRIBUTION PETROLIERE ET GAZIERE;;33424405;;;DOUALA;IMM GRAS SAVOYE;;;Sun Dec 07 2025 12:12:08 GMT-0500 (UTC−05:00);Sun Dec 07 2025 12:17:49 GMT-0500 (UTC−05:00);NEPTUNE;;;;;;
18caf65d-056c-41a8-bb17-64c65fcb3b36;df6d2c82-f638-461a-a140-eedcb1eacd46;CONGELE DU CAMEROUN;DISTRIBUTION POISSONS ET VOLAILLES;;22237257;;;YAOUNDE;YAOUNDE;;;Sun Dec 07 2025 12:12:08 GMT-0500 (UTC−05:00);Sun Dec 07 2025 12:17:49 GMT-0500 (UTC−05:00);CONGELCAM SA;;;;;;
7ed18dbe-d8a5-4b17-be83-9b71aa92e954;df6d2c82-f638-461a-a140-eedcb1eacd46;OMNIUM SERVICE;ELECTRICITE INDUSTRIELLE;;699504302/33 37 74 82;;;DOUALA;� c�t� de You Mee;;;Sun Dec 07 2025 12:12:08 GMT-0500 (UTC−05:00);Sun Dec 07 2025 12:17:49 GMT-0500 (UTC−05:00);OMNIUM SERVICE;;;;;;
3c13495b-b610-43e4-b7ac-370a1d3c9ee2;df6d2c82-f638-461a-a140-eedcb1eacd46;SOCIETE METCH-ELEC SARL;ELECTRICITE INDUSTRIELLE;;33425799;;;DOUALA;Rue de la casse;;;Sun Dec 07 2025 12:12:08 GMT-0500 (UTC−05:00);Sun Dec 07 2025 12:17:49 GMT-0500 (UTC−05:00);METCH ELEC;;;;;;
0fdb09bc-23af-49b2-956a-f4e3b570becf;;BOUCHERIE CHARCUTERIE DU LITTORAL;;;;;;;;;;Sun Dec 07 2025 21:12:40 GMT-0500 (UTC−05:00);Sun Dec 07 2025 21:12:40 GMT-0500 (UTC−05:00);;;;;;;
a818428b-d60a-4478-b3d1-e3747ab4ac5f;;SIPAL;;;;;;;;;;Sun Dec 07 2025 21:12:40 GMT-0500 (UTC−05:00);Sun Dec 07 2025 21:12:40 GMT-0500 (UTC−05:00);;;;;;;
4fabf0d6-0b15-4240-93ae-eec4b447d310;;PRUDENTIAL BENEFICIAL INSURANCE CAMEROON;;;;;;;;;;Sun Dec 07 2025 21:12:40 GMT-0500 (UTC−05:00);Sun Dec 07 2025 21:12:40 GMT-0500 (UTC−05:00);;;;;;;
7ae7e187-f5e9-4ac0-9e07-777deb236737;;BGFIBANK CAMEROUN SA;;;;;;;;;;Sun Dec 07 2025 21:12:40 GMT-0500 (UTC−05:00);Sun Dec 07 2025 21:12:40 GMT-0500 (UTC−05:00);;;;;;;
02906562-345d-4511-b324-25ea5cd1fe63;;NACHTIGAL HYDRO POWER COMPANY;;;;;;;;;;Sun Dec 07 2025 21:12:40 GMT-0500 (UTC−05:00);Sun Dec 07 2025 21:12:40 GMT-0500 (UTC−05:00);;;;;;;
d410f73e-a524-4d29-a702-64e8a331d51c;;PORT AUTONOME DE DOUALA;;;;;;;;;;Sun Dec 07 2025 21:12:40 GMT-0500 (UTC−05:00);Sun Dec 07 2025 21:12:40 GMT-0500 (UTC−05:00);;;;;;;
171db680-7b62-4f9f-b155-05dbb4f7572b;;VISION 4 TELEVISION SA;;;;;;;;;;Sun Dec 07 2025 21:12:40 GMT-0500 (UTC−05:00);Sun Dec 07 2025 21:12:40 GMT-0500 (UTC−05:00);;;;;;;
c8e07db4-94e5-42d0-a886-bec2b70f94b0;;LA REGIONALE BANK S.A;;;;;;;;;;Sun Dec 07 2025 21:12:40 GMT-0500 (UTC−05:00);Sun Dec 07 2025 21:12:40 GMT-0500 (UTC−05:00);;;;;;;
c92d2c66-671e-449b-af96-ba174fe2c949;;WEBB FONTAINE GROUP;;;;;;;;;;Sun Dec 07 2025 21:12:40 GMT-0500 (UTC−05:00);Sun Dec 07 2025 21:12:40 GMT-0500 (UTC−05:00);;;;;;;
605d3447-9e91-4b31-ae6a-00febe2b02ad;;EXCO AFRIQUE SENEGAL;;;;;;;;;;Sun Dec 07 2025 21:12:40 GMT-0500 (UTC−05:00);Sun Dec 07 2025 21:12:40 GMT-0500 (UTC−05:00);;;;;;;
db309556-f674-4862-8736-2155c8528e59;;CECEC SA;;;;;;;;;;Sun Dec 07 2025 21:12:40 GMT-0500 (UTC−05:00);Sun Dec 07 2025 21:12:40 GMT-0500 (UTC−05:00);;;;;;;
976c93a6-9784-4b21-9a53-94b785bb58d8;;SOCIETE ANONYME DES BOISSONS DU CAMEROUN;;;;;;;;;;Sun Dec 07 2025 21:12:40 GMT-0500 (UTC−05:00);Sun Dec 07 2025 21:12:40 GMT-0500 (UTC−05:00);;;;;;;
035bae64-47f4-4842-9f10-1355c25dafaa;;UNION MARITIME AGENCY;;;;;;;;;;Sun Dec 07 2025 21:12:40 GMT-0500 (UTC−05:00);Sun Dec 07 2025 21:12:40 GMT-0500 (UTC−05:00);;;;;;;
8ac68c1c-e037-4c67-9808-17a07690b3c1;;AFRICA BRIGHT CAPITAL;;;;;;;;;;Sun Dec 07 2025 21:12:40 GMT-0500 (UTC−05:00);Sun Dec 07 2025 21:12:40 GMT-0500 (UTC−05:00);;;;;;;
fc7292fc-a61b-42be-bfc9-d56d64bafb8b;;MEDECINS SANS FRONTIERES;;;;;;;;;;Sun Dec 07 2025 21:12:40 GMT-0500 (UTC−05:00);Sun Dec 07 2025 21:12:40 GMT-0500 (UTC−05:00);;;;;;;
4cd67871-e7f1-40c3-91f4-313db53cecf4;;ENEO CAMEROUN;;;;;;;;;;Sun Dec 07 2025 21:12:40 GMT-0500 (UTC−05:00);Sun Dec 07 2025 21:12:40 GMT-0500 (UTC−05:00);;;;;;;
5d865a16-ff21-4ee3-baac-e3af7e25dc79;;PRODIFOOD'S;;;;;;;;;;Sun Dec 07 2025 21:12:40 GMT-0500 (UTC−05:00);Sun Dec 07 2025 21:12:40 GMT-0500 (UTC−05:00);;;;;;;
c546c9c7-5568-4de1-ae75-f1f14712a6d9;;CFAO MOBILITY CAMEROON;;;;;;;;;;Sun Dec 07 2025 21:12:40 GMT-0500 (UTC−05:00);Sun Dec 07 2025 21:12:40 GMT-0500 (UTC−05:00);;;;;;;
8d404b20-29bd-43f9-a1ee-a2956366576a;;DANGOTE CEMENT CAMEROON SA;;;;;;;;;;Sun Dec 07 2025 21:12:40 GMT-0500 (UTC−05:00);Sun Dec 07 2025 21:12:40 GMT-0500 (UTC−05:00);;;;;;;
ce617dbd-e023-4b21-93ee-3d7d10f17c8c;;MBOKA INDUSTRIAL SERVICES (CAMEROON) SA;;;;;;;;;;Sun Dec 07 2025 21:12:40 GMT-0500 (UTC−05:00);Sun Dec 07 2025 21:12:40 GMT-0500 (UTC−05:00);;;;;;;
e489dde3-17bb-4ea6-b0e0-c4930d095d79;;CONTINENTAL OIL TRANSPORTATION OPERATING CITERNES SA;;;;;;;;;;Sun Dec 07 2025 21:12:40 GMT-0500 (UTC−05:00);Sun Dec 07 2025 21:12:40 GMT-0500 (UTC−05:00);;;;;;;
bdbde853-df06-4d36-838a-2de8b10371fd;;MONSIEUR MBOCK DESIRE GEOFFROY;;;;;;;;;;Sun Dec 07 2025 21:12:40 GMT-0500 (UTC−05:00);Sun Dec 07 2025 21:12:40 GMT-0500 (UTC−05:00);;;;;;;
8af8e081-8de3-4b7f-a1a5-f44ae059f5e1;;TERMINAL MIXTE FRUITIER DE DOUALA;;;;;;;;;;Sun Dec 07 2025 21:12:40 GMT-0500 (UTC−05:00);Sun Dec 07 2025 21:12:40 GMT-0500 (UTC−05:00);;;;;;;
a8c0a95f-0610-4554-8044-4de0445ececc;;SOFOMEUTEX;;;;;;;;;;Sun Dec 07 2025 21:12:40 GMT-0500 (UTC−05:00);Sun Dec 07 2025 21:12:40 GMT-0500 (UTC−05:00);;;;;;;
471ef071-2b88-4220-bbd5-1fe7519574ac;;PEOPLE KNOWLEDGE SERVICES SARL;;;;;;;;;;Sun Dec 07 2025 21:12:40 GMT-0500 (UTC−05:00);Sun Dec 07 2025 21:12:40 GMT-0500 (UTC−05:00);;;;;;;
27a23e6a-48f8-4bef-83e8-50b59e56e6ee;;EOLIS CAMEROUN;;;;;;;;;;Sun Dec 07 2025 21:12:40 GMT-0500 (UTC−05:00);Sun Dec 07 2025 21:12:40 GMT-0500 (UTC−05:00);;;;;;;
a9595b89-e582-4f52-804a-09d733288547;;Y.M TRANSIT;;;;;;;;;;Sun Dec 07 2025 21:12:40 GMT-0500 (UTC−05:00);Sun Dec 07 2025 21:12:40 GMT-0500 (UTC−05:00);;;;;;;
57abf6f6-0b52-43ca-a0c2-37b2cfac3b86;;AFRICA BRIGHT ASSET MANAGEMENT SA;;;;;;;;;;Sun Dec 07 2025 21:12:40 GMT-0500 (UTC−05:00);Sun Dec 07 2025 21:12:40 GMT-0500 (UTC−05:00);;;;;;;
9bf96a00-c261-4637-886d-2e242b7edd80;;MAÎTRE CHEMOU;;;;;;;;;;Sun Dec 07 2025 21:12:40 GMT-0500 (UTC−05:00);Sun Dec 07 2025 21:12:40 GMT-0500 (UTC−05:00);;;;;;;
f89fbd01-7695-4222-be63-8cd2183a1bfe;;ORANGE CAMEROUN SA;;;;;;;;;;Sun Dec 07 2025 21:12:40 GMT-0500 (UTC−05:00);Sun Dec 07 2025 21:12:40 GMT-0500 (UTC−05:00);;;;;;;
ed49d0c0-ef66-43f7-bbc6-4eb365084829;;CAMLAIT;;;;;;;;;;Sun Dec 07 2025 21:12:40 GMT-0500 (UTC−05:00);Sun Dec 07 2025 21:12:40 GMT-0500 (UTC−05:00);;;;;;;
cf48c749-90b7-4ae6-9042-7017eace4ace;;GUINNESS CAMEROUN S.A;;;;;;;;;;Sun Dec 07 2025 21:12:40 GMT-0500 (UTC−05:00);Sun Dec 07 2025 21:12:40 GMT-0500 (UTC−05:00);;;;;;;
b5efd939-f14a-45d6-81db-5fa9a93c39ac;;DHL EXPRESS;;;;;;;;;;Sun Dec 07 2025 21:12:40 GMT-0500 (UTC−05:00);Sun Dec 07 2025 21:12:40 GMT-0500 (UTC−05:00);;;;;;;
622e403e-640b-4f9d-84d9-24c84df60fbe;;LABOREX CAMEROUN SA;;;;;;;;;;Sun Dec 07 2025 21:12:40 GMT-0500 (UTC−05:00);Sun Dec 07 2025 21:12:40 GMT-0500 (UTC−05:00);;;;;;;
f266c3a7-1e09-48cd-9b9b-0eafe2d6e940;;COMETAL;;;;;;;;;;Sun Dec 07 2025 21:12:40 GMT-0500 (UTC−05:00);Sun Dec 07 2025 21:12:40 GMT-0500 (UTC−05:00);;;;;;;
d471698c-4a44-4724-ac13-140e7ef5044a;;TRADEX CAMEROUN SA;;;;;;;;;;Sun Dec 07 2025 21:12:40 GMT-0500 (UTC−05:00);Sun Dec 07 2025 21:12:40 GMT-0500 (UTC−05:00);;;;;;;
7fd0abbf-ca4c-4779-9c61-12e242adeb50;;GLOBELEQ;;;;;;;;;;Sun Dec 07 2025 21:12:40 GMT-0500 (UTC−05:00);Sun Dec 07 2025 21:12:40 GMT-0500 (UTC−05:00);;;;;;;
0d7e6286-2465-4a6a-a5a5-cf001a571167;;ACCESS BANK PLC;;;;;;;;;;Sun Dec 07 2025 21:12:40 GMT-0500 (UTC−05:00);Sun Dec 07 2025 21:12:40 GMT-0500 (UTC−05:00);;;;;;;
923b30a1-ea08-4216-b17e-6b955900d6d9;;IHS CAMEROUN SA;;;;;;;;;;Sun Dec 07 2025 21:12:40 GMT-0500 (UTC−05:00);Sun Dec 07 2025 21:12:40 GMT-0500 (UTC−05:00);;;;;;;
30817367-e1a0-46b8-8b60-ef0700fa06a6;;SOCIETE GENERAL CAMEROUN;;;;;;;;;;Sun Dec 07 2025 21:12:40 GMT-0500 (UTC−05:00);Sun Dec 07 2025 21:12:40 GMT-0500 (UTC−05:00);;;;;;;
0e4cd136-b429-4044-8964-14d80c7d6650;;TELCAR COCOA LIMITED;;;;;;;;;;Sun Dec 07 2025 21:12:40 GMT-0500 (UTC−05:00);Sun Dec 07 2025 21:12:40 GMT-0500 (UTC−05:00);;;;;;;
0ffa0dd8-6d98-4b5f-b0ba-804cb3426574;;AZUR;;;;;;;;;;Sun Dec 07 2025 21:12:40 GMT-0500 (UTC−05:00);Sun Dec 07 2025 21:12:40 GMT-0500 (UTC−05:00);;;;;;;
a0fa2f6a-a039-413a-9141-b1d22260eea2;;SEEF SA;;;;;;;;;;Sun Dec 07 2025 21:12:40 GMT-0500 (UTC−05:00);Sun Dec 07 2025 21:12:40 GMT-0500 (UTC−05:00);;;;;;;
5c73a560-e5bf-4a65-a37e-c0f4f71383f2;;COMPAGNIE NATIONALE DES CHARGEURS DU CAMEROUN;;;;;;;;;;Sun Dec 07 2025 21:12:40 GMT-0500 (UTC−05:00);Sun Dec 07 2025 21:12:40 GMT-0500 (UTC−05:00);;;;;;;
af21cbbe-61ef-421f-89cf-b917bfa34446;;EDF CAMEROUN SA;;;;;;;;;;Sun Dec 07 2025 21:12:40 GMT-0500 (UTC−05:00);Sun Dec 07 2025 21:12:40 GMT-0500 (UTC−05:00);;;;;;;
337bc185-1eba-4d39-979f-6020e6882217;;EMRALD SECURITIES SERVICES BOURSE SA;;;;;;;;;;Sun Dec 07 2025 21:12:40 GMT-0500 (UTC−05:00);Sun Dec 07 2025 21:12:40 GMT-0500 (UTC−05:00);;;;;;;
367a5737-16e1-4b9f-bbf2-e43bb85461ec;;LONGSTAR EQUIPMENT CAMEROUN;;;;;;;;;;Sun Dec 07 2025 21:12:40 GMT-0500 (UTC−05:00);Sun Dec 07 2025 21:12:40 GMT-0500 (UTC−05:00);;;;;;;
ca648744-266c-4b5c-a2ee-5a8f4b1659d9;;EB-Partners Law Tax & Global Legal Services;;;;;;;;;;Sun Dec 07 2025 21:12:40 GMT-0500 (UTC−05:00);Sun Dec 07 2025 21:12:40 GMT-0500 (UTC−05:00);;;;;;;
2fa5f040-cf4f-4af2-84ef-e29a51ed3b66;;WEBB FONTAINE CAMEROUN S.A;;;;;;;;;;Sun Dec 07 2025 21:12:40 GMT-0500 (UTC−05:00);Sun Dec 07 2025 21:12:40 GMT-0500 (UTC−05:00);;;;;;;
0cbe7e05-a179-4175-89c4-23e495d0bfd4;;AFRICA BRIGHT SECURITIES SA;;;;;;;;;;Sun Dec 07 2025 21:12:40 GMT-0500 (UTC−05:00);Sun Dec 07 2025 21:12:40 GMT-0500 (UTC−05:00);;;;;;;
23d9d077-95a5-4bee-951e-4ef2eff47ede;;ELECNOR CAMEROUN S.A;;;;;;;;;;Sun Dec 07 2025 21:12:40 GMT-0500 (UTC−05:00);Sun Dec 07 2025 21:12:40 GMT-0500 (UTC−05:00);;;;;;;
2873cdfa-5130-4797-974a-7c89a76dff10;;SOCIETE CAMEROUNAISE DE VERRERIE;;;;;;;;;;Sun Dec 07 2025 21:12:40 GMT-0500 (UTC−05:00);Sun Dec 07 2025 21:12:40 GMT-0500 (UTC−05:00);;;;;;;
bc3ef8a8-c5d6-4612-b7c9-405321e0fefc;;GEODIS PROJECTS CAMEROON;;;;;;;;;;Sun Dec 07 2025 21:12:40 GMT-0500 (UTC−05:00);Sun Dec 07 2025 21:12:40 GMT-0500 (UTC−05:00);;;;;;;
4da8bc05-6b70-4240-b691-a36dbb011522;;CFAO;;;;;;;;;;Sun Dec 07 2025 21:12:40 GMT-0500 (UTC−05:00);Sun Dec 07 2025 21:12:40 GMT-0500 (UTC−05:00);;;;;;;
39e55291-75da-4de7-9121-610a4ee8f4a2;;CAMEROUNAISE DE CONSTRUCTION DU BARRAGE DE NACHTIGAL S.A.S;;;;;;;;;;Sun Dec 07 2025 21:12:40 GMT-0500 (UTC−05:00);Sun Dec 07 2025 21:12:40 GMT-0500 (UTC−05:00);;;;;;;
7a89d6a0-2019-4e92-98de-29fd5ff4f57f;;IMPLANTS & SERVICES SARL;;;;;;;;;;Sun Dec 07 2025 21:12:40 GMT-0500 (UTC−05:00);Sun Dec 07 2025 21:12:40 GMT-0500 (UTC−05:00);;;;;;;
108a5761-0ddc-4479-9200-a9f0f7491320;;TOTALENERGIES MARKETING CAMEROUN S.A;;;;;;;;;;Sun Dec 07 2025 21:12:40 GMT-0500 (UTC−05:00);Sun Dec 07 2025 21:12:40 GMT-0500 (UTC−05:00);;;;;;;
c10119cd-3daa-4551-b2b2-a88f21e9bf44;;SYSTEMES ET APPLICATIONS ELECTRONIQUES S.A;;;;;;;;;;Sun Dec 07 2025 21:12:40 GMT-0500 (UTC−05:00);Sun Dec 07 2025 21:12:40 GMT-0500 (UTC−05:00);;;;;;;
e2e0359b-9bfb-462f-96a7-fa8d40e477ad;;SOACAM AGRO INDUSTRIES S.A;;;;;;;;;;Sun Dec 07 2025 21:12:40 GMT-0500 (UTC−05:00);Sun Dec 07 2025 21:12:40 GMT-0500 (UTC−05:00);;;;;;;
30e54aa9-369b-4504-b5ff-d6206352d8a3;;RW KING S.A;;;;;;;;;;Sun Dec 07 2025 21:12:40 GMT-0500 (UTC−05:00);Sun Dec 07 2025 21:12:40 GMT-0500 (UTC−05:00);;;;;;;
89f2f5bc-d2e4-4039-9b20-c7a0598296ff;;ATTIJARI SECURITIES CENTRAL AFRICA;;;;;;;;;;Sun Dec 07 2025 21:12:40 GMT-0500 (UTC−05:00);Sun Dec 07 2025 21:12:40 GMT-0500 (UTC−05:00);;;;;;;
8f2b3f23-0ab7-4115-8189-eb0d6ef2e327;;DHL GLOBAL FORWARDING CAMEROUN PLC;;;;;;;;;;Sun Dec 07 2025 21:12:40 GMT-0500 (UTC−05:00);Sun Dec 07 2025 21:12:40 GMT-0500 (UTC−05:00);;;;;;;
b5400669-24e7-46bd-8d5c-0c44edd5cc55;;HYDIAM FORAGES;;;;;;;;;;Sun Dec 07 2025 21:12:40 GMT-0500 (UTC−05:00);Sun Dec 07 2025 21:12:40 GMT-0500 (UTC−05:00);;;;;;;
315ebff8-7762-44b4-bc27-7f6b187d8730;;IBI S.A;;;;;;;;;;Sun Dec 07 2025 21:12:40 GMT-0500 (UTC−05:00);Sun Dec 07 2025 21:12:40 GMT-0500 (UTC−05:00);;;;;;;
e94f1db8-1258-4b64-970a-8719c6e24e3a;;GREENFIL PLANTATION LTD S.A;;;;;;;;;;Sun Dec 07 2025 21:12:40 GMT-0500 (UTC−05:00);Sun Dec 07 2025 21:12:40 GMT-0500 (UTC−05:00);;;;;;;
3c4a131a-1f67-4c2b-8396-54a83344e683;;MAÎTRE ESSONO EPOUSE CHEMOU BLANCHE;;;;;;;;;;Sun Dec 07 2025 21:12:40 GMT-0500 (UTC−05:00);Sun Dec 07 2025 21:12:40 GMT-0500 (UTC−05:00);;;;;;;
b9d0b128-d38b-4be3-bbdd-15c59f6db315;;ICM CONSULTING SARL;;;;;;;;;;Sun Dec 07 2025 21:12:40 GMT-0500 (UTC−05:00);Sun Dec 07 2025 21:12:40 GMT-0500 (UTC−05:00);;;;;;;
790d07fb-997d-4c43-b090-64fe7821a8bd;;DIRECTION GENERALE DES DOUANES ET DES DROITS INDIRECTS DU TCHAD;;;;;;;;;;Sun Dec 07 2025 21:12:40 GMT-0500 (UTC−05:00);Sun Dec 07 2025 21:12:40 GMT-0500 (UTC−05:00);;;;;;;
d926e6c5-a9fc-4b53-a9da-00867cd92fee;;SCI VESTALIA;;;;;;;;;;Sun Dec 07 2025 21:12:40 GMT-0500 (UTC−05:00);Sun Dec 07 2025 21:12:40 GMT-0500 (UTC−05:00);;;;;;;
b54bc86c-3322-4e0d-a77a-4b30e458f436;;KRIBI POWER DEVELOPMENT COMPANY;;;;;;;;;;Sun Dec 07 2025 21:12:40 GMT-0500 (UTC−05:00);Sun Dec 07 2025 21:12:40 GMT-0500 (UTC−05:00);;;;;;;
21853d16-148f-4abf-8035-84b3a032f2cf;;SOA - Soulemanou Haliyou;;;;;;;;;;Sun Dec 07 2025 21:12:40 GMT-0500 (UTC−05:00);Sun Dec 07 2025 21:12:40 GMT-0500 (UTC−05:00);;;;;;;
2ad9f077-dafd-460b-bd55-914de0f9510c;;HEVEA CAMEROUN S.A;;;;;;;;;;Sun Dec 07 2025 21:12:40 GMT-0500 (UTC−05:00);Sun Dec 07 2025 21:12:40 GMT-0500 (UTC−05:00);;;;;;;
6fb7aea8-1d93-47ee-9ee2-d2a993b53446;;SOCIETE COMMERCIALE DE BANQUE CAMEROUN S.A;;;;;;;;;;Sun Dec 07 2025 21:12:40 GMT-0500 (UTC−05:00);Sun Dec 07 2025 21:12:40 GMT-0500 (UTC−05:00);;;;;;;
711f95fa-86ec-48d6-8f56-4518058eebbe;;ELECNOR SUCCURSALE;;;;;;;;;;Sun Dec 07 2025 21:12:40 GMT-0500 (UTC−05:00);Sun Dec 07 2025 21:12:40 GMT-0500 (UTC−05:00);;;;;;;
ef375c96-5ebe-4aab-9534-857ac99343c2;;BOURBON OFFSHORE MARINE SERVICES CAMEROUN;;;;;;;;;;Sun Dec 07 2025 21:12:40 GMT-0500 (UTC−05:00);Sun Dec 07 2025 21:12:40 GMT-0500 (UTC−05:00);;;;;;;
77943dd0-13a4-46d8-824c-caf51cda2138;;HORUS INVESTMENT CAPITAL S.A;;;;;;;;;;Sun Dec 07 2025 21:12:40 GMT-0500 (UTC−05:00);Sun Dec 07 2025 21:12:40 GMT-0500 (UTC−05:00);;;;;;;
d663bf9d-e5bc-48d6-bf5f-172fe7339b21;;LOXEA S.A;;;;;;;;;;Sun Dec 07 2025 21:12:40 GMT-0500 (UTC−05:00);Sun Dec 07 2025 21:12:40 GMT-0500 (UTC−05:00);;;;;;;
fd5e7c84-7486-43e3-af11-941441e0c070;;ATLANTIQUE ASSURANCE IARDT-CAMEROUN;;;;;;;;;;Sun Dec 07 2025 21:12:40 GMT-0500 (UTC−05:00);Sun Dec 07 2025 21:12:40 GMT-0500 (UTC−05:00);;;;;;;
ca48a04e-9933-4d06-aaa9-36655536cd94;;DIBAMBA POWER DEVELOPMENT COMPANY SA;;;;;;;;;;Sun Dec 07 2025 21:12:40 GMT-0500 (UTC−05:00);Sun Dec 07 2025 21:12:40 GMT-0500 (UTC−05:00);;;;;;;
93eb03bf-71cf-4588-b3dd-4a2452035398;;OFFICE TOGOLAIS DES RECETTES;;;;;;;;;;Sun Dec 07 2025 21:12:40 GMT-0500 (UTC−05:00);Sun Dec 07 2025 21:12:40 GMT-0500 (UTC−05:00);;;;;;;
aefd81b8-d857-4f00-9914-d6d8f7f3b719;;CFAO TECHNOLOGIES S.A;;;;;;;;;;Sun Dec 07 2025 21:12:40 GMT-0500 (UTC−05:00);Sun Dec 07 2025 21:12:40 GMT-0500 (UTC−05:00);;;;;;;
0ac87631-d2de-4b4d-8b13-6db39e8f81f2;;TAM-TAM SOLEIL;;;;;;;;;;Sun Dec 07 2025 21:12:40 GMT-0500 (UTC−05:00);Sun Dec 07 2025 21:12:40 GMT-0500 (UTC−05:00);;;;;;;
3f277ca7-3543-41de-b2fa-aac1075e3444;;EB-PARTNERS AUDIT;;;;;;;;;;Sun Dec 07 2025 21:12:40 GMT-0500 (UTC−05:00);Sun Dec 07 2025 21:12:40 GMT-0500 (UTC−05:00);;;;;;;
1fb21be7-e5d6-4f3d-b451-14792d584a5f;;Mutuelles des inspecteur et officiers des Douanes du Cameroun;;;;;;;;;;Sun Dec 07 2025 21:12:40 GMT-0500 (UTC−05:00);Sun Dec 07 2025 21:12:40 GMT-0500 (UTC−05:00);;;;;;;
92254102-8e7e-42df-b9b2-715da410a654;;KING BAY CENTER S.A;;;;;;;;;;Sun Dec 07 2025 21:12:40 GMT-0500 (UTC−05:00);Sun Dec 07 2025 21:12:40 GMT-0500 (UTC−05:00);;;;;;;
6e3adb83-ca13-4561-b537-28394aac657b;;DJILO NGASSOP IRENE;;;;;;;;;;Sun Dec 07 2025 21:12:40 GMT-0500 (UTC−05:00);Sun Dec 07 2025 21:12:40 GMT-0500 (UTC−05:00);;;;;;;
418725eb-3558-4493-90c5-2169f0de26e1;;SHOW OFF SARL;;;;;;;;;;Sun Dec 07 2025 21:12:40 GMT-0500 (UTC−05:00);Sun Dec 07 2025 21:12:40 GMT-0500 (UTC−05:00);;;;;;;
ee72e3a2-7f6b-4095-88b3-65c271115e3a;;CIA CAPITAL INVEST;;;;;;;;;;Sun Dec 07 2025 21:12:40 GMT-0500 (UTC−05:00);Sun Dec 07 2025 21:12:40 GMT-0500 (UTC−05:00);;;;;;;
f7a669b2-0eb9-4f25-a913-aa9e17339606;;AMT CAMEROUN S.A;;;;;;;;;;Sun Dec 07 2025 21:12:40 GMT-0500 (UTC−05:00);Sun Dec 07 2025 21:12:40 GMT-0500 (UTC−05:00);;;;;;;
8789a823-5b20-4335-8ebe-4ce47cfefabb;;DJOUFACK NGOUNE SUZANNE;;;;;;;;;;Sun Dec 07 2025 21:12:40 GMT-0500 (UTC−05:00);Sun Dec 07 2025 21:12:40 GMT-0500 (UTC−05:00);;;;;;;
253c19a0-49d2-4e67-ae08-03741eae252e;;JOCCIDALO PETROLEUM;;;;;;;;;;Sun Dec 07 2025 21:12:40 GMT-0500 (UTC−05:00);Sun Dec 07 2025 21:12:40 GMT-0500 (UTC−05:00);;;;;;;
abe63216-3f48-4a03-945c-61fd2aa76fa8;;TCHARITRANS;;;;;;;;;;Sun Dec 07 2025 21:12:40 GMT-0500 (UTC−05:00);Sun Dec 07 2025 21:12:40 GMT-0500 (UTC−05:00);;;;;;;
a2a3d630-a310-4586-b186-0119fad0b445;;KRIEGER BREWERY COMPANY PLC;;;;;;;;;;Sun Dec 07 2025 21:12:40 GMT-0500 (UTC−05:00);Sun Dec 07 2025 21:12:40 GMT-0500 (UTC−05:00);;;;;;;
e7935cde-2369-4ead-a3e3-4ff5eef66a25;;SOCIETE DES EAUX MINERALES DU CAMEROUN;;;;;;;;;;Sun Dec 07 2025 21:12:40 GMT-0500 (UTC−05:00);Sun Dec 07 2025 21:12:40 GMT-0500 (UTC−05:00);;;;;;;
a497d657-8046-49dc-ab98-72978a80ff46;;GRACEDOM INVEST S.A;;;;;;;;;;Sun Dec 07 2025 21:12:40 GMT-0500 (UTC−05:00);Sun Dec 07 2025 21:12:40 GMT-0500 (UTC−05:00);;;;;;;
bca825a8-de27-43fb-9662-812502f2ae8a;;EXCELLENCE EQUIPMENT & MOTORS NGAOUNDERE SARL;;;;;;;;;;Sun Dec 07 2025 21:12:40 GMT-0500 (UTC−05:00);Sun Dec 07 2025 21:12:40 GMT-0500 (UTC−05:00);;;;;;;
7f85db4d-2bdb-4186-9759-1e0cc83fd933;;SOCIETE MINIERE DE L'EST;;;;;;;;;;Sun Dec 07 2025 21:12:40 GMT-0500 (UTC−05:00);Sun Dec 07 2025 21:12:40 GMT-0500 (UTC−05:00);;;;;;;
cb69f17c-b9d9-4b7b-a1ae-2ed66a62dffa;;KIKOT-MBEBE HYDRO POWER COMPANY;;;;;;;;;;Sun Dec 07 2025 21:12:40 GMT-0500 (UTC−05:00);Sun Dec 07 2025 21:12:40 GMT-0500 (UTC−05:00);;;;;;;
9f5822a7-ebcc-4198-a494-37701cbeeacf;;SHOW OFF ASSURANCE;;;;;;;;;;Sun Dec 07 2025 21:12:40 GMT-0500 (UTC−05:00);Sun Dec 07 2025 21:12:40 GMT-0500 (UTC−05:00);;;;;;;
f3285c89-29cf-4f6f-8564-b8a292ba2d2a;;ADIALEA CAMEROUN S.A;;;;;;;;;;Sun Dec 07 2025 21:12:40 GMT-0500 (UTC−05:00);Sun Dec 07 2025 21:12:40 GMT-0500 (UTC−05:00);;;;;;;
9c0d4071-048f-40d5-b10f-e6e224451fbf;;AFRICA FINANCES;;;;;;;;;;Sun Dec 07 2025 21:12:40 GMT-0500 (UTC−05:00);Sun Dec 07 2025 21:12:40 GMT-0500 (UTC−05:00);;;;;;;
88b4f5b1-9a14-4130-8aae-0680f418d15d;;TSG CAMEROUN S.A;;;;;;;;;;Sun Dec 07 2025 21:12:40 GMT-0500 (UTC−05:00);Sun Dec 07 2025 21:12:40 GMT-0500 (UTC−05:00);;;;;;;
cc5143e1-aa2f-43d0-8fdb-c8b14ff23c17;;DAFMA & FORTRANS;;;;;;;;;;Sun Dec 07 2025 21:12:40 GMT-0500 (UTC−05:00);Sun Dec 07 2025 21:12:40 GMT-0500 (UTC−05:00);;;;;;;
2f4f0422-92a6-4ee4-ab41-fe5af530248c;;MEN GROUP;;;;;;;;;;Sun Dec 07 2025 21:12:40 GMT-0500 (UTC−05:00);Sun Dec 07 2025 21:12:40 GMT-0500 (UTC−05:00);;;;;;;
f4d17920-de09-436f-a4aa-6437920b7f6e;;CALLENS CAMEROUN S.A;;;;;;;;;;Sun Dec 07 2025 21:12:40 GMT-0500 (UTC−05:00);Sun Dec 07 2025 21:12:40 GMT-0500 (UTC−05:00);;;;;;;
ea56390e-7834-4ae8-bb98-1a62c2f369bd;;J2N CONSEIL SARL;;;;;;;;;;Sun Dec 07 2025 21:12:40 GMT-0500 (UTC−05:00);Sun Dec 07 2025 21:12:40 GMT-0500 (UTC−05:00);;;;;;;
cf288c18-d393-4e0c-a87c-8b21fa3c7ee4;;KAKOTEL S.A;;;;;;;;;;Sun Dec 07 2025 21:12:40 GMT-0500 (UTC−05:00);Sun Dec 07 2025 21:12:40 GMT-0500 (UTC−05:00);;;;;;;
ff2ceb1d-155b-4ae5-bb7c-9ba4aad3a22f;;CHINA HARBOUR ENGINEERING COMPANY LTD;;;;;;;;;;Sun Dec 07 2025 21:12:40 GMT-0500 (UTC−05:00);Sun Dec 07 2025 21:12:40 GMT-0500 (UTC−05:00);;;;;;;
06c821ed-ca7f-40d1-9f06-4accafff3d65;;Office Régional Agricole et des Produits de Rente du Sud;;;;;;;;;;Sun Dec 07 2025 21:12:40 GMT-0500 (UTC−05:00);Sun Dec 07 2025 21:12:40 GMT-0500 (UTC−05:00);;;;;;;
ad3f0c7e-821a-4507-b3a2-7e76ca2e2628;;GROUPE KEDE SARL;;;;;;;;;;Sun Dec 07 2025 21:12:40 GMT-0500 (UTC−05:00);Sun Dec 07 2025 21:12:40 GMT-0500 (UTC−05:00);;;;;;;
cf105091-053a-461b-9e5a-8e6cd47fddde;;DAVINCI INVESTMENT GROUP SARL;;;;;;;;;;Sun Dec 07 2025 21:12:40 GMT-0500 (UTC−05:00);Sun Dec 07 2025 21:12:40 GMT-0500 (UTC−05:00);;;;;;;
a2809e09-ad61-4ba3-a4d6-3b6eabaa912b;;AZA Finance;;;;;;;;;;Sun Dec 07 2025 21:12:40 GMT-0500 (UTC−05:00);Sun Dec 07 2025 21:12:40 GMT-0500 (UTC−05:00);;;;;;;
95a305ad-06f0-4de4-8c43-aa3157ff4e3a;;SAMSON BILANGNA;;;;;;;;;;Sun Dec 07 2025 21:12:40 GMT-0500 (UTC−05:00);Sun Dec 07 2025 21:12:40 GMT-0500 (UTC−05:00);;;;;;;
3a38b6c2-31b2-4cce-ba64-8a6b15a2976b;;CAMEROON INTERNATIONALE TRADE SARL;;;;;;;;;;Sun Dec 07 2025 21:12:40 GMT-0500 (UTC−05:00);Sun Dec 07 2025 21:12:40 GMT-0500 (UTC−05:00);;;;;;;
8044da9b-870d-40f5-8c1a-cc24ff2de3a2;;BEST WIN S.A;;;;;;;;;;Sun Dec 07 2025 21:12:40 GMT-0500 (UTC−05:00);Sun Dec 07 2025 21:12:40 GMT-0500 (UTC−05:00);;;;;;;
82adb1fe-7623-467e-a262-e7a2694ae0a2;;CAMEROON INTERNATIONALE TRADE SARL 2;;;;;;;;;;Sun Dec 07 2025 21:12:40 GMT-0500 (UTC−05:00);Sun Dec 07 2025 21:12:40 GMT-0500 (UTC−05:00);;;;;;;
487c90ab-fb58-4974-9f3f-31ff9400ae0a;;ARCHIBAT PLUS DESIGN;;;;;;;;;;Sun Dec 07 2025 21:12:40 GMT-0500 (UTC−05:00);Sun Dec 07 2025 21:12:40 GMT-0500 (UTC−05:00);;;;;;;
85031c84-8099-4016-b529-01357e3222c4;;NOTICAM SA;;;;;;;;;;Sun Dec 07 2025 21:12:40 GMT-0500 (UTC−05:00);Sun Dec 07 2025 21:12:40 GMT-0500 (UTC−05:00);;;;;;;
ecddcf86-ac5d-4be1-934e-5db972e37a2e;;Advance Maritime Transport;;;;;;;;;;Sun Dec 07 2025 21:12:40 GMT-0500 (UTC−05:00);Sun Dec 07 2025 21:12:40 GMT-0500 (UTC−05:00);;;;;;;
9e56d26d-3d29-4f0e-b46c-03fa1786b168;;MOTOA TRANSPORT TRANSIT ET  SERVICES (MTTS);;;;;;;;;;Sun Dec 07 2025 21:12:40 GMT-0500 (UTC−05:00);Sun Dec 07 2025 21:12:40 GMT-0500 (UTC−05:00);;;;;;;
8a6aa420-c3a7-47ef-a84d-64f2afd8627d;;EVERWELL  CAMEROON CABLES AND ENGINEERING S.A;;;;;;;;;;Sun Dec 07 2025 21:12:40 GMT-0500 (UTC−05:00);Sun Dec 07 2025 21:12:40 GMT-0500 (UTC−05:00);;;;;;;
6f1f0b33-08b4-4cf3-a8ce-b04a378502da;;CAMFISH;;;;;;;;;;Sun Dec 07 2025 21:12:40 GMT-0500 (UTC−05:00);Sun Dec 07 2025 21:12:40 GMT-0500 (UTC−05:00);;;;;;;
ee936974-d0d2-4310-9eef-b664e0c9807b;;SOCIETE INTERAFRICAINE DES PRODUITS PHARMACEUTIQUES ET PARAPHARMACEUTIQUES;;;;;;;;;;Sun Dec 07 2025 21:12:40 GMT-0500 (UTC−05:00);Sun Dec 07 2025 21:12:40 GMT-0500 (UTC−05:00);;;;;;;
bf1ea601-0c14-4f8e-bfb6-ba913aa67cb8;;EVERWELL CAMEROUN CABLES and ENGINEERING SA;;;;;;;;;;Sun Dec 07 2025 21:12:40 GMT-0500 (UTC−05:00);Sun Dec 07 2025 21:12:40 GMT-0500 (UTC−05:00);;;;;;;
049ebf67-4e0b-44eb-bf5d-273fa20402d3;;NGOLLE 4 ISSAC RICHARD;;;;;;;;;;Sun Dec 07 2025 21:12:40 GMT-0500 (UTC−05:00);Sun Dec 07 2025 21:12:40 GMT-0500 (UTC−05:00);;;;;;;
ab54074d-769e-4fb8-b83c-a0294eceee55;;SIGMA INC LTD;;;;;;;;;;Sun Dec 07 2025 21:12:40 GMT-0500 (UTC−05:00);Sun Dec 07 2025 21:12:40 GMT-0500 (UTC−05:00);;;;;;;
426ac4dd-879c-400e-a810-627b0e5acd5d;;SITRAB-CAM;;;;;;;;;;Sun Dec 07 2025 21:12:40 GMT-0500 (UTC−05:00);Sun Dec 07 2025 21:12:40 GMT-0500 (UTC−05:00);;;;;;;
d58352f9-3229-4a22-acf0-7a60af02b373;;COMPAGNY OF TRANSPORT AND FAIR TRADE;;;;;;;;;;Sun Dec 07 2025 21:12:40 GMT-0500 (UTC−05:00);Sun Dec 07 2025 21:12:40 GMT-0500 (UTC−05:00);;;;;;;
82e49512-8f5d-4357-852c-4ea565b489ac;;BRIGHT POINT LOGISTICS SARL;;;;;;;;;;Sun Dec 07 2025 21:12:40 GMT-0500 (UTC−05:00);Sun Dec 07 2025 21:12:40 GMT-0500 (UTC−05:00);;;;;;;
18e1c02a-3001-417f-9720-3de68d8858bc;;OCEAN PETROLEUM SARL;;;;;;;;;;Sun Dec 07 2025 21:12:40 GMT-0500 (UTC−05:00);Sun Dec 07 2025 21:12:40 GMT-0500 (UTC−05:00);;;;;;;
46aaa9e3-41b2-4b6a-8683-1baed12df9f7;;ENGINE OIL COMPANY SA;;;;;;;;;;Sun Dec 07 2025 21:12:40 GMT-0500 (UTC−05:00);Sun Dec 07 2025 21:12:40 GMT-0500 (UTC−05:00);;;;;;;
3f6a2bd8-3341-41ed-9e33-38426c5c44f5;;AFRICA VISION DEVELOPMENT SARL;;;;;;;;;;Sun Dec 07 2025 21:12:40 GMT-0500 (UTC−05:00);Sun Dec 07 2025 21:12:40 GMT-0500 (UTC−05:00);;;;;;;
18526a9d-2f7f-4096-b0a9-7fe80dabfbec;;ARTS ET METIERS SARL;;;;;;;;;;Sun Dec 07 2025 21:12:40 GMT-0500 (UTC−05:00);Sun Dec 07 2025 21:12:40 GMT-0500 (UTC−05:00);;;;;;;
01776803-8407-47ec-8c8b-046109e45200;;Etude Me Grâce NKAKE BOLLANGA;;;;;;;;;;Sun Dec 07 2025 21:12:40 GMT-0500 (UTC−05:00);Sun Dec 07 2025 21:12:40 GMT-0500 (UTC−05:00);;;;;;;
6699f7f8-ed1d-4b09-8aa4-24d389924598;;MERMO OIL;;;;;;;;;;Sun Dec 07 2025 21:12:40 GMT-0500 (UTC−05:00);Sun Dec 07 2025 21:12:40 GMT-0500 (UTC−05:00);;;;;;;
a59aa386-9246-42d0-b32c-3bae09f3718b;;SAE;;;;;;;;;;Sun Dec 07 2025 21:12:40 GMT-0500 (UTC−05:00);Sun Dec 07 2025 21:12:40 GMT-0500 (UTC−05:00);;;;;;;
9849b732-a5b2-40c9-809f-1ff4d3b081aa;;Societé d'Expliotation Industrielle Agricole;;;;;;;;;;Sun Dec 07 2025 21:12:40 GMT-0500 (UTC−05:00);Sun Dec 07 2025 21:12:40 GMT-0500 (UTC−05:00);;;;;;;
da183649-dd80-4907-9153-a555df34226c;;MEN LOGISTICS SA;;;;;;;;;;Sun Dec 07 2025 21:12:40 GMT-0500 (UTC−05:00);Sun Dec 07 2025 21:12:40 GMT-0500 (UTC−05:00);;;;;;;
3cc2035b-1f07-47cf-b30c-d136d7711fa2;;MONSIEUR BAHA Robert;;;;;;;;;;Sun Dec 07 2025 21:12:40 GMT-0500 (UTC−05:00);Sun Dec 07 2025 21:12:40 GMT-0500 (UTC−05:00);;;;;;;
b8f33d6f-15b6-4788-8907-4a9d5aa040b7;;NORBERT GWEM;;;;;;;;;;Sun Dec 07 2025 21:12:40 GMT-0500 (UTC−05:00);Sun Dec 07 2025 21:12:40 GMT-0500 (UTC−05:00);;;;;;;
d52063eb-8f91-4461-bc3f-afc115b316d6;;JL2M MULTISERVICES SARL;;;;;;;;;;Sun Dec 07 2025 21:12:40 GMT-0500 (UTC−05:00);Sun Dec 07 2025 21:12:40 GMT-0500 (UTC−05:00);;;;;;;
6dba21ae-99a1-4299-804b-1f1736dfe341;;AGROLOGISTIK SARL;;;;;;;;;;Sun Dec 07 2025 21:12:40 GMT-0500 (UTC−05:00);Sun Dec 07 2025 21:12:40 GMT-0500 (UTC−05:00);;;;;;;
bc52473e-d094-4e92-80fa-81f76d0e072e;;SPEEDY WORLD WIDE SERVICES;;;;;;;;;;Sun Dec 07 2025 21:12:40 GMT-0500 (UTC−05:00);Sun Dec 07 2025 21:12:40 GMT-0500 (UTC−05:00);;;;;;;
259abf51-18d0-4f6e-9c82-a9794e3f0acf;;SOLIDARITÉS INTERNATIONAL;;;;;;;;;;Sun Dec 07 2025 21:12:40 GMT-0500 (UTC−05:00);Sun Dec 07 2025 21:12:40 GMT-0500 (UTC−05:00);;;;;;;
d358840f-448f-4282-8db1-163f48fe6217;;ZTE INTERNATIONAL LIMITED;;;;;;;;;;Sun Dec 07 2025 21:12:40 GMT-0500 (UTC−05:00);Sun Dec 07 2025 21:12:40 GMT-0500 (UTC−05:00);;;;;;;
025499a2-30d9-4b35-b8a9-95e83c196801;df6d2c82-f638-461a-a140-eedcb1eacd46;ACTIVA ASSURANCES SARL;ASSURANCES;activa@gmail.com;3434503;activassur.cm;;DOUALA;PROVINCES REUNIES;;;Sun Dec 07 2025 12:12:08 GMT-0500 (UTC−05:00);Mon Dec 08 2025 17:05:50 GMT-0500 (UTC−05:00);ACTIVA ASSURANCES;admin1;214343243241;admin1@gmail.com;admin;4141434324324;admin@gmail.com